*******************************************************************************
JPL/HORIZONS                424 Gratia (A896 YD)           2023-Sep-04 11:06:15
Rec #:     424 (+COV) Soln.date: 2023-Aug-23_17:07:49  # obs: 15828 (1898-2023)
 
IAU76/J2000 helio. ecliptic osc. elements (au, days, deg., period=Julian yrs):
 
  EPOCH=  2456936.5 ! 2014-Oct-06.00 (TDB)         Residual RMS= .26724
   EC= .1083963984758863   QR= 2.473859246489517   TP= 2457645.8319841432
   OM= 99.25666770059642   W=  331.7691774827849   IN= 8.209873637415944
   A= 2.77461782597186     MA= 208.7313752561847   ADIST= 3.075376405454203
   PER= 4.62182            N= .213255046           ANGMOM= .028485017
   DAN= 2.50298            DDN= 3.03154            L= 71.2711214
   B= -3.8731475           MOID= 1.49234998        TP= 2016-Sep-14.3319841432
 
Asteroid physical parameters (km, seconds, rotational period in hours):
   GM= n.a.                RAD= 51.2825            ROTPER= 20.063
   H= 9.76                 G= .150                 B-V= n.a.
                           ALBEDO= .027            STYP= n.a.

ASTEROID comments: 
1: soln ref.= JPL#83, OCC=0
2: source=ORB
*******************************************************************************


*******************************************************************************
Ephemeris / API_USER Mon Sep  4 11:06:15 2023 Pasadena, USA      / Horizons
*******************************************************************************
Target body name: 424 Gratia (A896 YD)            {source: JPL#83}
Center body name: Solar System Barycenter (0)     {source: DE441}
Center-site name: BODY CENTER
*******************************************************************************
Start time      : A.D. 2023-Aug-12 00:00:00.0000 TDB
Stop  time      : A.D. 2023-Aug-13 00:00:00.0000 TDB
Step-size       : 2880 minutes
*******************************************************************************
Center geodetic : 0.0, 0.0, 0.0                   {E-lon(deg),Lat(deg),Alt(km)}
Center cylindric: 0.0, 0.0, 0.0                   {E-lon(deg),Dxy(km),Dz(km)}
Center radii    : (undefined)
Small perturbers: Yes                             {source: SB441-N16}
Output units    : KM-S
Calendar mode   : Mixed Julian/Gregorian
Output type     : GEOMETRIC cartesian states
Output format   : 2 (position and velocity)
Reference frame : Ecliptic of J2000.0
*******************************************************************************
Initial IAU76/J2000 heliocentric ecliptic osculating elements (au, days, deg.):
  EPOCH=  2456936.5 ! 2014-Oct-06.00 (TDB)         Residual RMS= .26724        
   EC= .1083963984758863   QR= 2.473859246489517   TP= 2457645.8319841432      
   OM= 99.25666770059642   W=  331.7691774827849   IN= 8.209873637415944       
  Equivalent ICRF heliocentric cartesian coordinates (au, au/d):
   X= 2.377915232756863E-01  Y=-2.799477308576085E+00  Z=-1.173846692367631E+00
  VX= 9.197763466623574E-03 VY= 1.589613194687070E-03 VZ=-7.675410175210970E-04
Asteroid physical parameters (km, seconds, rotational period in hours):        
   GM= n.a.                RAD= 51.2825            ROTPER= 20.063              
   H= 9.76                 G= .150                 B-V= n.a.                   
                           ALBEDO= .027            STYP= n.a.                  
*******************************************************************************
JDTDB
   X     Y     Z
   VX    VY    VZ
*******************************************************************************
$$SOE
2460168.500000000 = A.D. 2023-Aug-12 00:00:00.0000 TDB 
 X =-1.593277901185023E+08 Y =-4.312975784743467E+08 Z = 3.246086868100414E+07
 VX= 1.484806122780374E+01 VY=-5.730121128502113E+00 VZ=-1.986391825004707E+00
$$EOE
*******************************************************************************
 
TIME

  Barycentric Dynamical Time ("TDB" or T_eph) output was requested. This
continuous coordinate time is equivalent to the relativistic proper time
of a clock at rest in a reference frame co-moving with the solar system
barycenter but outside the system's gravity well. It is the independent
variable in the solar system relativistic equations of motion.

  TDB runs at a uniform rate of one SI second per second and is independent
of irregularities in Earth's rotation.
 
CALENDAR SYSTEM

  Mixed calendar mode was active such that calendar dates after AD 1582-Oct-15
(if any) are in the modern Gregorian system. Dates prior to 1582-Oct-5 (if any)
are in the Julian calendar system, which is automatically extended for dates
prior to its adoption on 45-Jan-1 BC.  The Julian calendar is useful for
matching historical dates. The Gregorian calendar more accurately corresponds
to the Earth's orbital motion and seasons. A "Gregorian-only" calendar mode is
available if such physical events are the primary interest.

REFERENCE FRAME AND COORDINATES

  Ecliptic at the standard reference epoch

    Reference epoch: J2000.0
    X-Y plane: adopted Earth orbital plane at the reference epoch
               Note: IAU76 obliquity of 84381.448 arcseconds wrt ICRF X-Y plane
    X-axis   : ICRF
    Z-axis   : perpendicular to the X-Y plane in the directional (+ or -) sense
               of Earth's north pole at the reference epoch.

  Symbol meaning:

    JDTDB    Julian Day Number, Barycentric Dynamical Time
      X      X-component of position vector (km)
      Y      Y-component of position vector (km)
      Z      Z-component of position vector (km)
      VX     X-component of velocity vector (km/sec)                           
      VY     Y-component of velocity vector (km/sec)                           
      VZ     Z-component of velocity vector (km/sec)                           

ABERRATIONS AND CORRECTIONS

 Geometric state vectors have NO corrections or aberrations applied.

Computations by ...

    Solar System Dynamics Group, Horizons On-Line Ephemeris System
    4800 Oak Grove Drive, Jet Propulsion Laboratory
    Pasadena, CA  91109   USA

    General site: https://ssd.jpl.nasa.gov/
    Mailing list: https://ssd.jpl.nasa.gov/email_list.html
    System news : https://ssd.jpl.nasa.gov/horizons/news.html
    User Guide  : https://ssd.jpl.nasa.gov/horizons/manual.html
    Connect     : browser        https://ssd.jpl.nasa.gov/horizons/app.html#/x
                  API            https://ssd-api.jpl.nasa.gov/doc/horizons.html
                  command-line   telnet ssd.jpl.nasa.gov 6775
                  e-mail/batch   https://ssd.jpl.nasa.gov/ftp/ssd/hrzn_batch.txt
                  scripts        https://ssd.jpl.nasa.gov/ftp/ssd/SCRIPTS
    Author      : Jon.D.Giorgini@jpl.nasa.gov
*******************************************************************************
